NORAD_CAT_ID,OBJECT_NAME,OBJECT_TYPE,EPOCH,MEAN_MOTION,ECCENTRICITY,INCLINATION,RA_OF_ASC_NODE,ARG_OF_PERICENTER,MEAN_ANOMALY,BSTAR,MEAN_MOTION_DOT,MEAN_MOTION_DDOT,TLE_LINE0,TLE_LINE1,TLE_LINE2,SEMIMAJOR_AXIS,PERIOD,APOGEE,PERIGEE,DECAYED
52875.0,STARLINK-4193,PAYLOAD,2023-02-12 07:22:50,15.08853532,0.000181,53.2181,8.2029,106.1879,253.9312,0.0013623,0.00021468,0.0,0 STARLINK-4193,1 52875U 22062AX  23043.30753086  .00021468  00000-0  13623-2 0  9991,2 52875  53.2181   8.2029 0001810 106.1879 253.9312 15.08853532 37265,6917.839,95.437,540.956,538.452,0.0
52875.0,STARLINK-4193,PAYLOAD,2023-02-13 05:38:15,15.08842919,0.0001455,53.2193,4.0417,95.9782,264.1376,0.0005603,8.641e-05,0.0,0 STARLINK-4193,1 52875U 22062AX  23044.23489885  .00008641  00000-0  56030-3 0  9995,2 52875  53.2193   4.0417 0001455  95.9782 264.1376 15.08842919 37403,6917.871,95.437,540.743,538.73,0.0
52875.0,STARLINK-4193,PAYLOAD,2023-02-13 07:13:38,15.08844396,0.000141,53.2175,3.7414,95.4704,264.6449,0.0010111,0.00015842,0.0,0 STARLINK-4193,1 52875U 22062AX  23044.30113972  .00015842  00000-0  10111-2 0  9994,2 52875  53.2175   3.7414 0001410  95.4704 264.6449 15.08844396 36929,6917.867,95.437,540.707,538.757,0.0
52875.0,STARLINK-4193,PAYLOAD,2023-02-14 03:53:39,15.08852416,0.0001654,53.2183,359.8752,85.7907,274.3275,0.00097434,0.00015258,0.0,0 STARLINK-4193,1 52875U 22062AX  23045.16226072  .00015258  00000-0  97434-3 0  9990,2 52875  53.2183 359.8752 0001654  85.7907 274.3275 15.08852416 37541,6917.842,95.437,540.852,538.563,0.0
52875.0,STARLINK-4193,PAYLOAD,2023-02-14 13:25:58,15.08847519,0.0001361,53.2181,358.0913,77.4729,282.6415,0.00040523,6.168e-05,0.0,0 STARLINK-4193,1 52875U 22062AX  23045.55969932  .00006168  00000-0  40523-3 0  9999,2 52875  53.2181 358.0913 0001361  77.4729 282.6415 15.08847519 37113,6917.857,95.437,540.664,538.781,0.0
52875.0,STARLINK-4193,PAYLOAD,2023-02-15 03:44:26,15.08845611,9.65e-05,53.2176,355.4208,90.9303,269.18,0.00025574,3.785e-05,0.0,0 STARLINK-4193,1 52875U 22062AX  23046.15586050  .00003785  00000-0  25574-3 0  9993,2 52875  53.2176 355.4208 0000965  90.9303 269.1800 15.08845611 37694,6917.863,95.437,540.396,539.061,0.0
52875.0,STARLINK-4193,PAYLOAD,2023-02-15 13:16:45,15.08840215,0.0001092,53.2173,353.6322,78.9831,281.1283,0.00027396,4.075e-05,0.0,0 STARLINK-4193,1 52875U 22062AX  23046.55330080  .00004075  00000-0  27396-3 0  9994,2 52875  53.2173 353.6322 0001092  78.9831 281.1283 15.08840215 37269,6917.88,95.438,540.5,538.989,0.0
52875.0,STARLINK-4193,PAYLOAD,2023-02-16 03:35:12,15.08886175,0.0001123,53.2169,350.9569,83.0044,277.1076,0.0024948,0.00039691,0.0,0 STARLINK-4193,1 52875U 22062AX  23047.14945105  .00039691  00000-0  24948-2 0  9991,2 52875  53.2169 350.9569 0001123  83.0044 277.1076 15.08886175 37849,6917.739,95.435,540.381,538.827,0.0
52875.0,STARLINK-4193,PAYLOAD,2023-02-16 13:07:31,15.08858101,0.0001556,53.2165,349.1707,62.6894,297.4256,0.00078182,0.00012183,0.0,0 STARLINK-4193,1 52875U 22062AX  23047.54689308  .00012183  00000-0  78182-3 0  9992,2 52875  53.2165 349.1707 0001556  62.6894 297.4256 15.08858101 37905,6917.825,95.436,540.766,538.614,0.0
52875.0,STARLINK-4193,PAYLOAD,2023-02-16 22:39:51,15.08827356,0.0001226,53.2168,347.3888,75.9457,284.1672,0.0014997,0.00023652,0.0,0 STARLINK-4193,1 52875U 22062AX  23047.94434226  .00023652  00000-0  14997-2 0  9999,2 52875  53.2168 347.3888 0001226  75.9457 284.1672 15.08827356 37963,6917.919,95.438,540.632,538.936,0.0
52875.0,STARLINK-4193,PAYLOAD,2023-02-17 12:58:20,15.08824078,0.000113,53.2162,344.7126,80.7692,279.3427,0.0024364,0.00038683,0.0,0 STARLINK-4193,1 52875U 22062AX  23048.54051024  .00038683  00000-0  24364-2 0  9996,2 52875  53.2162 344.7126 0001130  80.7692 279.3427 15.08824078 38055,6917.929,95.439,540.576,539.012,0.0
52875.0,STARLINK-4193,PAYLOAD,2023-02-18 04:52:12,15.08833799,0.0001363,53.2163,341.7385,89.9583,270.1565,0.0021956,0.00034822,0.0,0 STARLINK-4193,1 52875U 22062AX  23049.20292324  .00034822  00000-0  21956-2 0  9995,2 52875  53.2163 341.7385 0001363  89.9583 270.1565 15.08833799 38151,6917.899,95.438,540.707,538.821,0.0
52875.0,STARLINK-4193,PAYLOAD,2023-02-18 12:49:08,15.0884849,0.0001453,53.216,340.2522,87.0811,273.0347,0.0019494,0.0003088,0.0,0 STARLINK-4193,1 52875U 22062AX  23049.53412349  .00030880  00000-0  19494-2 0  9996,2 52875  53.2160 340.2522 0001453  87.0811 273.0347 15.08848490 37713,6917.854,95.437,540.725,538.714,0.0
52875.0,STARLINK-4193,PAYLOAD,2023-02-19 01:32:12,15.08881846,0.0001467,53.2163,337.8732,85.3344,274.7816,0.0018822,0.00029829,0.0,0 STARLINK-4193,1 52875U 22062AX  23050.06403367  .00029829  00000-0  18822-2 0  9991,2 52875  53.2163 337.8732 0001467  85.3344 274.7816 15.08881846 38282,6917.752,95.435,540.632,538.603,0.0
52875.0,STARLINK-4193,PAYLOAD,2023-02-19 12:39:53,15.0888183,0.0001075,53.2175,335.7916,73.3686,286.7424,0.0015853,0.00025061,0.0,0 STARLINK-4193,1 52875U 22062AX  23050.52770350  .00025061  00000-0  15853-2 0  9996,2 52875  53.2175 335.7916 0001075  73.3686 286.7424 15.08881830 38356,6917.753,95.435,540.361,538.874,0.0
52875.0,STARLINK-4193,PAYLOAD,2023-02-19 23:47:35,15.0885633,0.0001273,53.2166,333.7101,102.952,257.1614,0.0012595,0.00019823,0.0,0 STARLINK-4193,1 52875U 22062AX  23050.99138368  .00019823  00000-0  12595-2 0  9993,2 52875  53.2166 333.7101 0001273 102.9520 257.1614 15.08856330 38424,6917.83,95.437,540.576,538.815,0.0
52875.0,STARLINK-4193,PAYLOAD,2023-02-20 04:33:44,15.08864095,0.0001187,53.2168,332.8176,96.0198,264.093,0.0019765,0.00031329,0.0,0 STARLINK-4193,1 52875U 22062AX  23051.19010139  .00031329  00000-0  19765-2 0  9992,2 52875  53.2168 332.8176 0001187  96.0198 264.0930 15.08864095 37969,6917.807,95.436,540.493,538.851,0.0
52875.0,STARLINK-4193,PAYLOAD,2023-02-20 23:38:22,15.08843038,0.0001173,53.2185,329.2488,106.0068,254.1054,0.00076025,0.00011833,0.0,0 STARLINK-4193,1 52875U 22062AX  23051.98498414  .00011833  00000-0  76025-3 0  9996,2 52875  53.2185 329.2488 0001173 106.0068 254.1054 15.08843038 38576,6917.871,95.437,540.548,538.925,0.0
52875.0,STARLINK-4193,PAYLOAD,2023-02-21 10:46:04,15.08850128,0.0001247,53.2163,327.1656,84.3313,275.7821,0.00056816,8.768e-05,0.0,0 STARLINK-4193,1 52875U 22062AX  23052.44866283  .00008768  00000-0  56816-3 0  9990,2 52875  53.2163 327.1656 0001247  84.3313 275.7821 15.08850128 38152,6917.849,95.437,540.577,538.852,0.0
52875.0,STARLINK-4193,PAYLOAD,2023-02-22 01:04:32,15.08851296,0.0001125,53.217,324.4944,105.6999,254.4117,0.00045138,6.905e-05,0.0,0 STARLINK-4193,1 52875U 22062AX  23053.04482115  .00006905  00000-0  45138-3 0  9991,2 52875  53.2170 324.4944 0001125 105.6999 254.4117 15.08851296 38735,6917.846,95.437,540.489,538.933,0.0
52875.0,STARLINK-4193,PAYLOAD,2023-02-22 04:15:18,15.08862325,0.0001504,53.2169,323.8988,109.517,250.5984,0.0005838,9.021e-05,0.0,0 STARLINK-4193,1 52875U 22062AX  23053.17729775  .00009021  00000-0  58380-3 0  9996,2 52875  53.2169 323.8988 0001504 109.5170 250.5984 15.08862325 38755,6917.812,95.436,540.718,538.637,0.0
52875.0,STARLINK-4193,PAYLOAD,2023-02-22 21:44:34,15.08827442,0.0001964,53.2154,320.6232,125.8559,234.2616,1.3026e-05,-8.1e-07,0.0,0 STARLINK-4193,1 52875U 22062AX  23053.90594939 -.00000081  00000-0  13026-4 0  9996,2 52875  53.2154 320.6232 0001964 125.8559 234.2616 15.08827442 38378,6917.919,95.438,541.142,538.425,0.0
52875.0,STARLINK-4193,PAYLOAD,2023-02-23 02:30:43,15.0882422,0.0001257,53.2162,319.7324,82.5801,277.5334,-3.4261e-05,-8.33e-06,0.0,0 STARLINK-4193,1 52875U 22062AX  23054.10467527 -.00000833  00000-0 -34261-4 0  9991,2 52875  53.2162 319.7324 0001257  82.5801 277.5334 15.08824220 38897,6917.929,95.439,540.663,538.924,0.0
52875.0,STARLINK-4193,PAYLOAD,2023-02-23 23:10:43,15.08852442,0.0001253,53.2155,315.8673,77.4755,282.6377,0.00051965,7.995e-05,0.0,0 STARLINK-4193,1 52875U 22062AX  23054.96578549  .00007995  00000-0  51965-3 0  9995,2 52875  53.2155 315.8673 0001253  77.4755 282.6377 15.08852442 39027,6917.842,95.437,540.574,538.841,0.0
52875.0,STARLINK-4193,PAYLOAD,2023-02-24 02:21:29,15.08867297,9.99e-05,53.2143,315.2721,103.6043,256.5061,0.0011663,0.00018336,0.0,0 STARLINK-4193,1 52875U 22062AX  23055.09826325  .00018336  00000-0  11663-2 0  9999,2 52875  53.2143 315.2721 0000999 103.6043 256.5061 15.08867297 38551,6917.797,95.436,540.353,538.971,0.0
52875.0,STARLINK-4193,PAYLOAD,2023-02-24 16:39:58,15.08839466,0.000118,53.2155,312.5962,87.608,272.5047,0.00017463,2.492e-05,0.0,0 STARLINK-4193,1 52875U 22062AX  23055.69443152  .00002492  00000-0  17463-3 0  9999,2 52875  53.2155 312.5962 0001180  87.6080 272.5047 15.08839466 39130,6917.882,95.438,540.563,538.931,0.0
52875.0,STARLINK-4193,PAYLOAD,2023-02-25 02:12:17,15.08847566,0.0001146,53.2154,310.8119,97.3986,262.7136,0.00037972,5.762e-05,0.0,0 STARLINK-4193,1 52875U 22062AX  23056.09186653  .00005762  00000-0  37972-3 0  9994,2 52875  53.2154 310.8119 0001146  97.3986 262.7136 15.08847566 39195,6917.857,95.437,540.515,538.929,0.0
52875.0,STARLINK-4193,PAYLOAD,2023-02-25 16:30:45,15.0884181,0.0001174,53.2151,308.1356,98.9699,261.1426,0.00045867,7.02e-05,0.0,0 STARLINK-4193,1 52875U 22062AX  23056.68802934  .00007020  00000-0  45867-3 0  9997,2 52875  53.2151 308.1356 0001174  98.9699 261.1426 15.08841810 39285,6917.875,95.437,540.552,538.928,0.0
52875.0,STARLINK-4193,PAYLOAD,2023-02-25 22:52:17,15.08863248,0.000121,53.215,306.9468,98.2026,261.9103,0.0012151,0.00019115,0.0,0 STARLINK-4193,1 52875U 22062AX  23056.95298503  .00019115  00000-0  12151-2 0  9995,2 52875  53.2150 306.9468 0001210  98.2026 261.9103 15.08863248 38831,6917.809,95.436,540.511,538.837,0.0
52875.0,STARLINK-4193,PAYLOAD,2023-02-26 02:03:03,15.08876037,0.0001195,53.2146,306.3509,97.4181,262.6946,0.0016409,0.00025949,0.0,0 STARLINK-4193,1 52875U 22062AX  23057.08546176  .00025949  00000-0  16409-2 0  9994,2 52875  53.2146 306.3509 0001195  97.4181 262.6946 15.08876037 39341,6917.77,95.435,540.462,538.809,0.0
